{
  "type": "FeatureCollection",
  "features": [
    {
      "type": "Feature",
      "properties": {
        "norad_id": 66385,
        "name": "STARLINK-35659",
        "group": "last-30-days",
        "lat": 17.772123597372044,
        "lon": -40.061566077901524,
        "alt_km": 445.33533124605947,
        "timestamp": "2025-12-03T22:42:31.474859+00:00",
        "meta_object_name": "STARLINK-35659",
        "meta_object_id": "2025-257F",
        "meta_epoch": "2025-12-03T12:00:02.998944",
        "meta_mean_motion": 15.39581565,
        "meta_eccentricity": 0.0001319,
        "meta_inclination": 53.1587,
        "meta_ra_of_asc_node": 308.1361,
        "meta_arg_of_pericenter": 96.8871,
        "meta_mean_anomaly": 331.3641,
        "meta_ephemeris_type": 0,
        "meta_classification_type": "U",
        "meta_norad_cat_id": 66385,
        "meta_element_set_no": 999,
        "meta_rev_at_epoch": 501,
        "meta_bstar": 0.0010254,
        "meta_mean_motion_dot": 0.00040784,
        "meta_mean_motion_ddot": 0,
        "tle_line1": "1 66385U 25257F   25337.50003471  .00040784  00000+0  10254-2 0  9995",
        "tle_line2": "2 66385  53.1587 308.1361 0001319  96.8871 331.3641 15.39581565  5019"
      },
      "geometry": {
        "type": "Point",
        "coordinates": [
          -40.061566077901524,
          17.772123597372044
        ]
      }
    },
    {
      "type": "Feature",
      "properties": {
        "norad_id": 66386,
        "name": "STARLINK-35651",
        "group": "last-30-days",
        "lat": 49.49972068364492,
        "lon": 7.3148769085317955,
        "alt_km": 436.08770233706673,
        "timestamp": "2025-12-03T22:42:31.474872+00:00",
        "meta_object_name": "STARLINK-35651",
        "meta_object_id": "2025-257G",
        "meta_epoch": "2025-12-03T12:00:02.998944",
        "meta_mean_motion": 15.4257294,
        "meta_eccentricity": 8.37e-05,
        "meta_inclination": 53.1593,
        "meta_ra_of_asc_node": 308.0442,
        "meta_arg_of_pericenter": 98.0056,
        "meta_mean_anomaly": 16.1282,
        "meta_ephemeris_type": 0,
        "meta_classification_type": "U",
        "meta_norad_cat_id": 66386,
        "meta_element_set_no": 999,
        "meta_rev_at_epoch": 501,
        "meta_bstar": -0.041343,
        "meta_mean_motion_dot": -0.01633528,
        "meta_mean_motion_ddot": 0,
        "tle_line1": "1 66386U 25257G   25337.50003471 -.01633528  00000+0 -41343-1 0  9995",
        "tle_line2": "2 66386  53.1593 308.0442 0000837  98.0056  16.1282 15.42572940  5019"
      },
      "geometry": {
        "type": "Point",
        "coordinates": [
          7.3148769085317955,
          49.49972068364492
        ]
      }
    },
    {
      "type": "Feature",
      "properties": {
        "norad_id": 66387,
        "name": "STARLINK-35661",
        "group": "last-30-days",
        "lat": 50.17017472216474,
        "lon": 9.945034007917947,
        "alt_km": 436.229450670613,
        "timestamp": "2025-12-03T22:42:31.474882+00:00",
        "meta_object_name": "STARLINK-35661",
        "meta_object_id": "2025-257H",
        "meta_epoch": "2025-12-03T12:00:02.998944",
        "meta_mean_motion": 15.42583289,
        "meta_eccentricity": 6.48e-05,
        "meta_inclination": 53.1595,
        "meta_ra_of_asc_node": 308.0405,
        "meta_arg_of_pericenter": 72.0651,
        "meta_mean_anomaly": 43.9259,
        "meta_ephemeris_type": 0,
        "meta_classification_type": "U",
        "meta_norad_cat_id": 66387,
        "meta_element_set_no": 999,
        "meta_rev_at_epoch": 501,
        "meta_bstar": -0.043116,
        "meta_mean_motion_dot": -0.01696499,
        "meta_mean_motion_ddot": 0,
        "tle_line1": "1 66387U 25257H   25337.50003471 -.01696499  00000+0 -43116-1 0  9992",
        "tle_line2": "2 66387  53.1595 308.0405 0000648  72.0651  43.9259 15.42583289  5014"
      },
      "geometry": {
        "type": "Point",
        "coordinates": [
          9.945034007917947,
          50.17017472216474
        ]
      }
    },
    {
      "type": "Feature",
      "properties": {
        "norad_id": 66388,
        "name": "STARLINK-35647",
        "group": "last-30-days",
        "lat": 53.09736593484505,
        "lon": 39.081536697129266,
        "alt_km": 427.664049155007,
        "timestamp": "2025-12-03T22:42:31.474891+00:00",
        "meta_object_name": "STARLINK-35647",
        "meta_object_id": "2025-257J",
        "meta_epoch": "2025-12-03T12:00:02.998944",
        "meta_mean_motion": 15.45540877,
        "meta_eccentricity": 0.0001277,
        "meta_inclination": 53.1595,
        "meta_ra_of_asc_node": 308.013,
        "meta_arg_of_pericenter": 72.1402,
        "meta_mean_anomaly": 57.5407,
        "meta_ephemeris_type": 0,
        "meta_classification_type": "U",
        "meta_norad_cat_id": 66388,
        "meta_element_set_no": 999,
        "meta_rev_at_epoch": 501,
        "meta_bstar": -0.047006,
        "meta_mean_motion_dot": -0.02041329,
        "meta_mean_motion_ddot": 0,
        "tle_line1": "1 66388U 25257J   25337.50003471 -.02041329  00000+0 -47006-1 0  9992",
        "tle_line2": "2 66388  53.1595 308.0130 0001277  72.1402  57.5407 15.45540877  5019"
      },
      "geometry": {
        "type": "Point",
        "coordinates": [
          39.081536697129266,
          53.09736593484505
        ]
      }
    },
    {
      "type": "Feature",
      "properties": {
        "norad_id": 66389,
        "name": "STARLINK-35694",
        "group": "last-30-days",
        "lat": 49.884075633931154,
        "lon": 63.008069619716245,
        "alt_km": 410.9399223839091,
        "timestamp": "2025-12-03T22:42:31.474901+00:00",
        "meta_object_name": "STARLINK-35694",
        "meta_object_id": "2025-257K",
        "meta_epoch": "2025-12-03T09:51:45.959040",
        "meta_mean_motion": 15.49244836,
        "meta_eccentricity": 0.0001836,
        "meta_inclination": 53.159,
        "meta_ra_of_asc_node": 308.4226,
        "meta_arg_of_pericenter": 114.7525,
        "meta_mean_anomaly": 245.3675,
        "meta_ephemeris_type": 0,
        "meta_classification_type": "U",
        "meta_norad_cat_id": 66389,
        "meta_element_set_no": 999,
        "meta_rev_at_epoch": 493,
        "meta_bstar": 0.00034878,
        "meta_mean_motion_dot": 0.00018953,
        "meta_mean_motion_ddot": 0,
        "tle_line1": "1 66389U 25257K   25337.41094860  .00018953  00000+0  34878-3 0  9993",
        "tle_line2": "2 66389  53.1590 308.4226 0001836 114.7525 245.3675 15.49244836  4939"
      },
      "geometry": {
        "type": "Point",
        "coordinates": [
          63.008069619716245,
          49.884075633931154
        ]
      }
    },
    {
      "type": "Feature",
      "properties": {
        "norad_id": 66390,
        "name": "STARLINK-35665",
        "group": "last-30-days",
        "lat": 29.581770162499673,
        "lon": 100.60128127660082,
        "alt_km": 414.1485311225806,
        "timestamp": "2025-12-03T22:42:31.474910+00:00",
        "meta_object_name": "STARLINK-35665",
        "meta_object_id": "2025-257L",
        "meta_epoch": "2025-12-03T09:42:52.043328",
        "meta_mean_motion": 15.49342524,
        "meta_eccentricity": 0.0001361,
        "meta_inclination": 53.1588,
        "meta_ra_of_asc_node": 308.3801,
        "meta_arg_of_pericenter": 95.3157,
        "meta_mean_anomaly": 264.8007,
        "meta_ephemeris_type": 0,
        "meta_classification_type": "U",
        "meta_norad_cat_id": 66390,
        "meta_element_set_no": 999,
        "meta_rev_at_epoch": 503,
        "meta_bstar": 0.001554,
        "meta_mean_motion_dot": 0.00087051,
        "meta_mean_motion_ddot": 0,
        "tle_line1": "1 66390U 25257L   25337.40476902  .00087051  00000+0  15540-2 0  9994",
        "tle_line2": "2 66390  53.1588 308.3801 0001361  95.3157 264.8007 15.49342524  5034"
      },
      "geometry": {
        "type": "Point",
        "coordinates": [
          100.60128127660082,
          29.581770162499673
        ]
      }
    },
    {
      "type": "Feature",
      "properties": {
        "norad_id": 66391,
        "name": "STARLINK-35656",
        "group": "last-30-days",
        "lat": 41.676049287673784,
        "lon": 83.9478926936307,
        "alt_km": 441.19730826080104,
        "timestamp": "2025-12-03T22:42:31.474920+00:00",
        "meta_object_name": "STARLINK-35656",
        "meta_object_id": "2025-257M",
        "meta_epoch": "2025-12-03T12:00:02.998944",
        "meta_mean_motion": 15.39582074,
        "meta_eccentricity": 0.0001522,
        "meta_inclination": 53.1593,
        "meta_ra_of_asc_node": 307.9196,
        "meta_arg_of_pericenter": 65.7595,
        "meta_mean_anomaly": 103.6952,
        "meta_ephemeris_type": 0,
        "meta_classification_type": "U",
        "meta_norad_cat_id": 66391,
        "meta_element_set_no": 999,
        "meta_rev_at_epoch": 511,
        "meta_bstar": 0.0007703,
        "meta_mean_motion_dot": 0.00030497,
        "meta_mean_motion_ddot": 0,
        "tle_line1": "1 66391U 25257M   25337.50003471  .00030497  00000+0  77030-3 0  9998",
        "tle_line2": "2 66391  53.1593 307.9196 0001522  65.7595 103.6952 15.39582074  5112"
      },
      "geometry": {
        "type": "Point",
        "coordinates": [
          83.9478926936307,
          41.676049287673784
        ]
      }
    }
  ]
}